# Made by eph2tle, compiled Mar 12 2023 20:28:02
# Run at Wed Mar 15 19:27:06 2023
#
# No updates (headed to heliocentric orbit)
#
#    The following TLEs (Two-Line Elements) were generated by fitting
# a numerically-integrated ephemeris,  based on the orbit given below,
# to the SDP4/SGP4 models.  Each TLE is good for the interval between
# its epoch and the epoch of the subsequent TLE (usually one day).
# The maximum deviation between the numerically integrated ephemerides
# and the TLE-based ephemeris, in kilometers,  is given for each TLE
# as the "worst residual".
#
#    This fitting is done using the 'eph2tle' code packaged with Find_Orb.
# The code has details on how the TLEs were computed :
#
#    https://github.com/Bill-Gray/find_orb/eph2tle.cpp
#
#    Be warned:  the error given is that between the numerically
# integrated ephems and the TLE model.  There will usually be at
# least some additional difference between the ephems and the actual
# motion of the satellite,  especially if the ephemerides are based
# on a short arc.  If the following orbital elements say something
# like "[based on] 10 observations 2015 Jan. 1-13",  and the TLEs
# are for 2015 May,  the extrapolation may be tenuous at best.  If
# your application requires a specific level of accuracy,  you may
# want to contact me;  I can give you some idea as to the fit of the
# underlying data (and possibly TLEs based on newer data).
#
#   You can usually find the underlying observational data,  and the
# fitted orbit,  residuals,  ephemerides,  and sometimes some comments
# about the object,  among the pages listed at
#
#    https://www.projectpluto.com/pluto/mpecs/pseudo.htm
#
#    WARNING:  for this object,  "normal" TLEs cannot be fitted.  (This
# usually means an object with an hyperbolic or nearly-parabolic orbit.)
# For this and similar cases,   an alternative model is used,  in which
# most of the traditional TLE data is replaced by six signed 8-digit hex
# numbers.  These six numbers are a state vector,  numerically integrated
# using a simplified force model.  This is necessary for objects at L2 or
# L1,  and sometimes for objects in high orbits where the SDP4/SGP4 model
# fails.  Some documentation is in 'get_el.cpp' in the source code at
# https://www.github.com/Bill-Gray/sat_code ; look for 'hex' in that file,
# with the actual integration done in 'sdp4.cpp'.  But be aware:  it's my
# own extension,  doesn't work with other code,  and is therefore used
# only when necessary.
#
#    Also,  if you use a TLE outside the "correct" time range (between
# its MJD and that of the next TLE),  all bets are off.  I've carefully
# computed and minimized the worst error over the "correct" time frame,
# but the ephemeris may (or may not) diverge wildly outside of it.
#
# Ephem range: 59872.000000 60027.000000 1.000000
# Created Wed Mar 15 19:26:46 2023
# Ephemeris start: 20 Oct 2022  0:00:00
# Ephemeris end:   24 Mar 2023  0:00:00
# Times are all TDT
# Positions/velocities are in equatorial J2000
# Orbital elements:  Photon = NORAD 52916 = 2022-070C
#    Perigee 2023 Mar 19.656646 +/- 5.76e-5 TT = 15:45:34.2 (JD 2460023.156646)
# Epoch 2023 Mar 15.0 TT; AMR 0.0026005 +/- 0.000145 m^2/kg        Find_Orb
# M 343.180376093 +/- 0.00021         (J2000 equator)
# n   3.611961186 +/- 6.92e-6         Peri.  251.717917 +/- 0.00016
# a908046.5715 +/- 1.16               Node    16.182235 +/- 0.000046
# e   0.71783269 +/- 3.76e-6          Incl.   32.245278 +/- 0.00007
# P  99.67d                  H 31.59  G  0.15   U  4.8
# q 256221.0553 +/- 3.33    Q 0.010427100 +/- 2.96e-8
# 28 of 33 observations 2022 Oct. 31-2023 Mar. 15; mean residual 0".209
#
# 1 NoradU COSPAR   Epoch.epoch     dn/dt/2  d2n/dt2/6 BSTAR    T El# C
# 2 NoradU Inclina RAAscNode Eccent  ArgPeri MeanAno  MeanMotion Rev# C

# Worst residual: 0.58 km
# MJD 59872.000000 (2022 Oct 20  0:00)
Photon = NORAD 52916 = 2022-070C
1 52916U 22070C   22292.99919926 -00BGBRCC +004BKX1G +001PC0CAH 19003
2 52916                          +00020VLI -0003DVQW -0000T89I     09

# Worst residual: 0.43 km
# MJD 59873.000000 (2022 Oct 21  0:00)
Photon = NORAD 52916 = 2022-070C
1 52916U 22070C   22293.99919926 -00AX7GMX +003HNJCX +001I1NYVH 19000
2 52916                          +0002EULY -0003JHWI -0000VIJ9     01

# Worst residual: 0.52 km
# MJD 59874.000000 (2022 Oct 22  0:00)
Photon = NORAD 52916 = 2022-070C
1 52916U 22070C   22294.99919926 -00AAF1L1 +002MDZVY +001A70GFH 19001
2 52916                          +0002VL8K -0003P0WB -0000XY1X     01

# Worst residual: 0.84 km
# MJD 59875.000000 (2022 Oct 23  0:00)
Photon = NORAD 52916 = 2022-070C
1 52916U 22070C   22295.99919926 -009J6YO2 +001PTBSD +0011QAM7H 19007
2 52916                          +0003FZ0K -0003UDJG -00010NBM     04

# Worst residual: 1.48 km
# MJD 59876.000000 (2022 Oct 24  0:00)
Photon = NORAD 52916 = 2022-070C
1 52916U 22070C   22296.99919926 -008MIZU7 +000S0KFH +000SKKVIH 19006
2 52916                          +000456CH -0003Z3I4 -00013QQ2     08

# Worst residual: 2.36 km
# MJD 59877.000000 (2022 Oct 25  0:00)
Photon = NORAD 52916 = 2022-070C
1 52916U 22070C   22297.99919926 -007J1HCL -0006PQOF +000IML8ZH 19005
2 52916                          +00051ANQ -00041SIR -000175MO     01

# Worst residual: 2.78 km
# MJD 59878.000000 (2022 Oct 26  0:00)
Photon = NORAD 52916 = 2022-070C
1 52916U 22070C   22298.99919926 -0066MFLQ -0015JHLL +0007V2JWH 19001
2 52916                          +00068KJF -0003Z0UR -0001AGNB     05

# Worst residual: 2.48 km
# MJD 59879.000000 (2022 Oct 27  0:00)
Photon = NORAD 52916 = 2022-070C
1 52916U 22070C   22299.99919926 -004HQ9AU -00227AII -0003K4Y4H 19001
2 52916                          +0007YZ5Y -0003H28K -0001C7EU     00

# Worst residual: 1.33 km
# MJD 59880.000000 (2022 Oct 28  0:00)
Photon = NORAD 52916 = 2022-070C
1 52916U 22070C   22300.99919926 -002AJ1WE -002PUK6T -000EOHM2H 19002
2 52916                          +000AHKY5 -0001M38O -00015VBE     00

# Worst residual: 0.61 km
# MJD 59881.000000 (2022 Oct 29  0:00)
Photon = NORAD 52916 = 2022-070C
1 52916U 22070C   22301.99919926 +000HMUBK -002ILMQ1 -000L0RL0H 19002
2 52916                          +000BZY8N +00043VMV -00002IP9     02

# Worst residual: 0.40 km
# MJD 59882.000000 (2022 Oct 30  0:00)
Photon = NORAD 52916 = 2022-070C
1 52916U 22070C   22302.99919926 +002V3XWG -000RF843 -000E7QP9H 19006
2 52916                          +00070CFZ +0009DBZ8 +0001GNGY     00

# Worst residual: 0.26 km
# MJD 59883.000000 (2022 Oct 31  0:00)
Photon = NORAD 52916 = 2022-070C
1 52916U 22070C   22303.99919926 +003Y92L9 +001IDR58 +0000C0Z3H 19009
2 52916                          +0002L4AL +000950A6 +0001RQTT     02

# Worst residual: 0.48 km
# MJD 59884.000000 (2022 Nov  1  0:00)
Photon = NORAD 52916 = 2022-070C
1 52916U 22070C   22304.99919926 +004APIBZ +003K9BQY +000FCM35H 19004
2 52916                          +0000JW1V +0007YOXQ +0001OO5R     09

# Worst residual: 0.56 km
# MJD 59885.000000 (2022 Nov  2  0:00)
Photon = NORAD 52916 = 2022-070C
1 52916U 22070C   22305.99919926 +004AO06O +005CIVAX +000TCBORH 19006
2 52916                          -0000GFDB +0006Y8DX +0001JX8F     09

# Worst residual: 0.59 km
# MJD 59886.000000 (2022 Nov  3  0:00)
Photon = NORAD 52916 = 2022-070C
1 52916U 22070C   22306.99919926 +00442X7F +006WZGJR +0016843IH 19007
2 52916                          -00010NHI +00065E1L +0001FJ4C     04

# Worst residual: 0.58 km
# MJD 59887.000000 (2022 Nov  4  0:00)
Photon = NORAD 52916 = 2022-070C
1 52916U 22070C   22307.99919926 +003TPCEC +008B8X46 +001I4HG8H 19005
2 52916                          -0001CUZY +0005I9KH +0001BPZX     02

# Worst residual: 0.42 km
# MJD 59888.000000 (2022 Nov  5  0:00)
Photon = NORAD 52916 = 2022-070C
1 52916U 22070C   22308.99919926 +003GZBJG +009KH7PR +001T683RH 19001
2 52916                          -0001KLEG +0004Z85W +00018F89     00

# Worst residual: 0.45 km
# MJD 59889.000000 (2022 Nov  6  0:00)
Photon = NORAD 52916 = 2022-070C
1 52916U 22070C   22309.99919926 +0032R6L7 +00APIFVR +0023HA61H 19005
2 52916                          -0001PLB9 +0004J55M +00015J1T     07

# Worst residual: 0.42 km
# MJD 59890.000000 (2022 Nov  7  0:00)
Photon = NORAD 52916 = 2022-070C
1 52916U 22070C   22310.99919926 +002NK56O +00BQYMHY +002D4RLLH 19006
2 52916                          -0001SSDP +0004592F +00012YC8     08

# Worst residual: 0.42 km
# MJD 59891.000000 (2022 Nov  8  0:00)
Photon = NORAD 52916 = 2022-070C
1 52916U 22070C   22311.99919926 +0027R89B +00CPABF0 +002M751EH 19009
2 52916                          -0001UQ3J +0003T15S +00010MT3     03

# Worst residual: 0.47 km
# MJD 59892.000000 (2022 Nov  9  0:00)
Photon = NORAD 52916 = 2022-070C
1 52916U 22070C   22312.99919926 +001RLRH9 +00DKUBFE +002UQEEWH 19001
2 52916                          -0001VQKW +0003I4J5 +0000YIUE     09

# Worst residual: 0.54 km
# MJD 59893.000000 (2022 Nov 10  0:00)
Photon = NORAD 52916 = 2022-070C
1 52916U 22070C   22313.99919926 +001BAP3N +00EDWU98 +0032S7Y7H 19000
2 52916                          -0001W1UW +00038AB6 +0000WLBH     05

# Worst residual: 0.60 km
# MJD 59894.000000 (2022 Nov 11  0:00)
Photon = NORAD 52916 = 2022-070C
1 52916U 22070C   22314.99919926 +000UZDHG +00F4QC17 +003AE1JYH 19007
2 52916                          -0001VTH5 +0002ZCH2 +0000UTES     06

# Worst residual: 0.61 km
# MJD 59895.000000 (2022 Nov 12  0:00)
Photon = NORAD 52916 = 2022-070C
1 52916U 22070C   22315.99919926 +000ES0YW +00FTI1OL +003HL507H 19008
2 52916                          -0001V58V +0002R6W0 +0000T6IG     04

# Worst residual: 0.57 km
# MJD 59896.000000 (2022 Nov 13  0:00)
Photon = NORAD 52916 = 2022-070C
1 52916U 22070C   22316.99919926 -00017VEL +00GGEDGT +003OENLMH 19005
2 52916                          -0001U3R9 +0002JQH0 +0000RO6Y     07

